NORAD_CAT_ID,OBJECT_NAME,OBJECT_TYPE,EPOCH,MEAN_MOTION,ECCENTRICITY,INCLINATION,RA_OF_ASC_NODE,ARG_OF_PERICENTER,MEAN_ANOMALY,BSTAR,MEAN_MOTION_DOT,MEAN_MOTION_DDOT,TLE_LINE0,TLE_LINE1,TLE_LINE2,SEMIMAJOR_AXIS,PERIOD,APOGEE,PERIGEE,DECAYED
52641.0,STARLINK-3991,PAYLOAD,2022-11-25 04:37:15,15.08731073,0.0003539,53.2175,248.3601,36.9136,323.2099,0.0018355,0.0002896,0.0,0 STARLINK-3991,1 52641U 22052AV  22329.19254162  .00028960  00000-0  18355-2 0  9996,2 52641  53.2175 248.3601 0003539  36.9136 323.2099 15.08731073 30270,6918.2130000000025,95.444,542.5269999999998,537.63,0.0
52641.0,STARLINK-3991,PAYLOAD,2022-11-25 06:12:35,15.088437900000002,0.0002909,53.2174,248.0622,29.7215,330.3942,8.2763e-05,1.029e-05,0.0,0 STARLINK-3991,1 52641U 22052AV  22329.25873882  .00001029  00000-0  82763-4 0  9992,2 52641  53.2174 248.0622 0002909  29.7215 330.3942 15.08843790 30284,6917.869000000002,95.437,541.746,537.721,0.0
52641.0,STARLINK-3991,PAYLOAD,2022-11-25 20:31:03,15.08847189,0.0002934,53.2168,245.3858,31.6622,328.4546,0.00018821,2.709e-05,0.0,0 STARLINK-3991,1 52641U 22052AV  22329.85489798  .00002709  00000-0  18821-3 0  9996,2 52641  53.2168 245.3858 0002934  31.6622 328.4546 15.08847189 30004,6917.858,95.437,541.753,537.694,0.0
52641.0,STARLINK-3991,PAYLOAD,2022-11-26 10:49:30,15.08855916,0.0002967,53.2167,242.7096,31.7311,328.386,0.00020244,2.936e-05,0.0,0 STARLINK-3991,1 52641U 22052AV  22330.45105032  .00002936  00000-0  20244-3 0  9994,2 52641  53.2167 242.7096 0002967  31.7311 328.3860 15.08855916 30465,6917.831999999999,95.437,541.749,537.644,0.0
52641.0,STARLINK-3991,PAYLOAD,2022-11-27 04:18:45,15.08847579,0.0002935,53.2167,239.439,29.1872,330.9284,-0.0003185,-5.355e-05,0.0,0 STARLINK-3991,1 52641U 22052AV  22331.17968815 -.00005355  00000-0 -31850-3 0  9995,2 52641  53.2167 239.4390 0002935  29.1872 330.9284 15.08847579 30570,6917.857,95.437,541.753,537.692,0.0
52641.0,STARLINK-3991,PAYLOAD,2022-11-27 05:54:08,15.0885009,0.0002911,53.2166,239.1415,28.8739,331.2414,-0.00043476,-7.204e-05,0.0,0 STARLINK-3991,1 52641U 22052AV  22331.24592610 -.00007204  00000-0 -43476-3 0  9991,2 52641  53.2166 239.1415 0002911  28.8739 331.2414 15.08850090 30218,6917.85,95.437,541.7280000000002,537.701,0.0
52641.0,STARLINK-3991,PAYLOAD,2022-11-27 20:12:37,15.08830489,0.0003092,53.2177,236.4653,33.0113,327.1072,-6.2418e-05,-1.282e-05,0.0,0 STARLINK-3991,1 52641U 22052AV  22331.84210495 -.00001282  00000-0 -62418-4 0  9993,2 52641  53.2177 236.4653 0003092  33.0113 327.1072 15.08830489 30303,6917.909000000002,95.438,541.913,537.635,0.0
52641.0,STARLINK-3991,PAYLOAD,2022-11-27 21:48:01,15.08829853,0.0002991,53.2176,236.168,32.1753,327.9421,-5.986e-05,-1.241e-05,0.0,0 STARLINK-3991,1 52641U 22052AV  22331.90834577 -.00001241  00000-0 -59860-4 0  9995,2 52641  53.2176 236.1680 0002991  32.1753 327.9421 15.08829853 30686,6917.911,95.438,541.846,537.707,0.0
52641.0,STARLINK-3991,PAYLOAD,2022-11-28 05:44:56,15.08835844,0.0002936,53.2175,234.6811,32.0996,328.0174,-5.747799999999999e-06,-3.8e-06,0.0,0 STARLINK-3991,1 52641U 22052AV  22332.23954206 -.00000380  00000-0 -57478-5 0  9991,2 52641  53.2175 234.6811 0002936  32.0996 328.0174 15.08835844 30731,6917.893,95.438,541.789,537.727,0.0
52641.0,STARLINK-3991,PAYLOAD,2022-11-29 02:24:58,15.08795465,0.0002956,53.2174,230.8152,38.4984,321.6219,0.00053138,8.169e-05,0.0,0 STARLINK-3991,1 52641U 22052AV  22333.10067547  .00008169  00000-0  53138-3 0  9999,2 52641  53.2174 230.8152 0002956  38.4984 321.6219 15.08795465 30862,6918.017,95.44,541.9259999999998,537.837,0.0
52641.0,STARLINK-3991,PAYLOAD,2022-11-29 16:43:25,15.08836308,0.0002878,53.2174,228.1388,32.3622,327.7546,0.00015967,2.253e-05,0.0,0 STARLINK-3991,1 52641U 22052AV  22333.69682252  .00002253  00000-0  15967-3 0  9995,2 52641  53.2174 228.1388 0002878  32.3622 327.7546 15.08836308 30950,6917.892,95.438,541.748,537.766,0.0
52641.0,STARLINK-3991,PAYLOAD,2022-11-30 10:12:40,15.08835349,0.0002933,53.2174,224.8681,32.3562,327.7609,9.8797e-05,1.284e-05,0.0,0 STARLINK-3991,1 52641U 22052AV  22334.42546925  .00001284  00000-0  98797-4 0  9999,2 52641  53.2174 224.8681 0002933  32.3562 327.7609 15.08835349 31061,6917.895,95.438,541.789,537.731,0.0
52641.0,STARLINK-3991,PAYLOAD,2022-11-30 16:34:12,15.08839822,0.0002929,53.2175,223.6785,32.427,327.6902,0.00011008,1.464e-05,0.0,0 STARLINK-3991,1 52641U 22052AV  22334.69042675  .00001464  00000-0  11008-3 0  9990,2 52641  53.2175 223.6785 0002929  32.4270 327.6902 15.08839822 30734,6917.880999999999,95.438,541.7719999999998,537.72,0.0
52641.0,STARLINK-3991,PAYLOAD,2022-12-01 02:06:31,15.08842518,0.0002988,53.2173,221.8948,32.2635,327.8540000000001,0.00017944,2.569e-05,0.0,0 STARLINK-3991,1 52641U 22052AV  22335.08786404  .00002569  00000-0  17944-3 0  9991,2 52641  53.2173 221.8948 0002988  32.2635 327.8540 15.08842518 31165,6917.873000000001,95.437,541.805,537.6709999999998,0.0
52641.0,STARLINK-3991,PAYLOAD,2022-12-01 10:03:27,15.0883542,0.0003058,53.2169,220.4083,31.6164,328.5012,9.7381e-05,1.261e-05,0.0,0 STARLINK-3991,1 52641U 22052AV  22335.41907113  .00001261  00000-0  97381-4 0  9992,2 52641  53.2169 220.4083 0003058  31.6164 328.5012 15.08835420 30844,6917.894,95.438,541.875,537.644,0.0
52641.0,STARLINK-3991,PAYLOAD,2022-12-01 19:35:46,15.08841146,0.0003035,53.2164,218.6247,31.0388,329.0783,0.00013419,1.848e-05,0.0,0 STARLINK-3991,1 52641U 22052AV  22335.81650494  .00001848  00000-0  13419-3 0  9993,2 52641  53.2164 218.6247 0003035  31.0388 329.0783 15.08841146 30907,6917.877,95.437,541.841,537.6419999999998,0.0
52641.0,STARLINK-3991,PAYLOAD,2022-12-02 01:57:17,15.08863702,0.0003103,53.2166,217.4346,33.1156,327.003,-5.3698e-05,-1.144e-05,0.0,0 STARLINK-3991,1 52641U 22052AV  22336.08145313 -.00001144  00000-0 -53698-4 0  9997,2 52641  53.2166 217.4346 0003103  33.1156 327.0030 15.08863702 31319,6917.808000000001,95.436,541.82,537.526,0.0
52641.0,STARLINK-3991,PAYLOAD,2022-12-02 09:54:13,15.0885103,0.0003053,53.2156,215.9477,33.4059,326.7125,0.00023165,3.401e-05,0.0,0 STARLINK-3991,1 52641U 22052AV  22336.41266012  .00003401  00000-0  23165-3 0  9995,2 52641  53.2156 215.9477 0003053  33.4059 326.7125 15.08851030 31362,6917.847,95.437,541.8240000000002,537.6,0.0
52641.0,STARLINK-3991,PAYLOAD,2022-12-02 17:51:09,15.08848336,0.000319,53.2144,214.4601,35.4202,324.7001,-0.00012991,-2.356e-05,0.0,0 STARLINK-3991,1 52641U 22052AV  22336.74386137 -.00002356  00000-0 -12991-3 0  9997,2 52641  53.2144 214.4601 0003190  35.4202 324.7001 15.08848336 31047,6917.855,95.437,541.927,537.513,0.0
52641.0,STARLINK-3991,PAYLOAD,2022-12-03 01:48:06,15.08833898,0.0003101,53.2163,212.974,34.9212,325.1983,-5.4508e-05,-1.156e-05,0.0,0 STARLINK-3991,1 52641U 22052AV  22337.07507336 -.00001156  00000-0 -54508-4 0  9998,2 52641  53.2163 212.9740 0003101  34.9212 325.1983 15.08833898 31469,6917.899,95.438,541.909,537.619,0.0
52641.0,STARLINK-3991,PAYLOAD,2022-12-03 16:06:34,15.08839396,0.0002885,53.2171,210.2966,37.4672,322.652,1.7049000000000002e-05,-1.7e-07,0.0,0 STARLINK-3991,1 52641U 22052AV  22337.67122892 -.00000017  00000-0  17049-4 0  9997,2 52641  53.2171 210.2966 0002885  37.4672 322.6520 15.08839396 31182,6917.882,95.438,541.743,537.751,0.0
52641.0,STARLINK-3991,PAYLOAD,2022-12-03 20:52:43,15.08841445,0.0002971,53.2162,209.4048,38.8861,321.2344,2.9301e-05,1.78e-06,0.0,0 STARLINK-3991,1 52641U 22052AV  22337.86994753  .00000178  00000-0  29301-4 0  9992,2 52641  53.2162 209.4048 0002971  38.8861 321.2344 15.08841445 31585,6917.876,95.437,541.7959999999998,537.686,0.0
52641.0,STARLINK-3991,PAYLOAD,2022-12-04 00:03:29,15.08845478,0.0003034,53.2165,208.8107,35.7589,324.3606,5.3975e-05,5.71e-06,0.0,0 STARLINK-3991,1 52641U 22052AV  22338.00242417  .00000571  00000-0  53975-4 0  9993,2 52641  53.2165 208.8107 0003034  35.7589 324.3606 15.08845478 31238,6917.864000000001,95.437,541.828,537.63,0.0
52641.0,STARLINK-3991,PAYLOAD,2022-12-05 01:29:40,15.0883461,0.000298,53.2168,204.0531,35.8113,324.3079,0.0001208,1.634e-05,0.0,0 STARLINK-3991,1 52641U 22052AV  22339.06227239  .00001634  00000-0  12080-3 0  9997,2 52641  53.2168 204.0531 0002980  35.8113 324.3079 15.08834610 31761,6917.897,95.438,541.823,537.7,0.0
52641.0,STARLINK-3991,PAYLOAD,2022-12-05 07:51:12,15.08830115,0.000304,53.2169,202.8639,35.4888,324.6306,0.00026491,3.929e-05,0.0,0 STARLINK-3991,1 52641U 22052AV  22339.32723282  .00003929  00000-0  26491-3 0  9995,2 52641  53.2169 202.8639 0003040  35.4888 324.6306 15.08830115 31436,6917.911,95.438,541.879,537.673,0.0
52641.0,STARLINK-3991,PAYLOAD,2022-12-05 18:58:54,15.08849376,0.0003068,53.2167,200.782,37.111,323.0094,0.0001324,1.82e-05,0.0,0 STARLINK-3991,1 52641U 22052AV  22339.79090320  .00001820  00000-0  13240-3 0  9992,2 52641  53.2167 200.7820 0003068  37.1110 323.0094 15.08849376 31874,6917.852,95.437,541.839,537.594,0.0
52641.0,STARLINK-3991,PAYLOAD,2022-12-06 07:41:59,15.088401800000002,0.0003187,53.2159,198.4026,37.6578,322.4637,7.542000000000003e-06,-1.69e-06,0.0,0 STARLINK-3991,1 52641U 22052AV  22340.32082712 -.00000169  00000-0  75420-5 0  9995,2 52641  53.2159 198.4026 0003187  37.6578 322.4637 15.08840180 31950,6917.88,95.438,541.95,537.54,0.0
52641.0,STARLINK-3991,PAYLOAD,2022-12-07 01:11:14,15.08826646,0.000324,53.2157,195.132,37.8098,322.3121,-0.00013569,-2.447e-05,0.0,0 STARLINK-3991,1 52641U 22052AV  22341.04947797 -.00002447  00000-0 -13569-3 0  9994,2 52641  53.2157 195.1320 0003240  37.8098 322.3121 15.08826646 32069,6917.920999999999,95.438,542.028,537.545,0.0
52641.0,STARLINK-3991,PAYLOAD,2022-12-07 20:15:52,15.08841248,0.0003112,53.2165,191.5639,41.029,319.0935,2.9755e-05,1.85e-06,0.0,0 STARLINK-3991,1 52641U 22052AV  22341.84435761  .00000185  00000-0  29755-4 0  9995,2 52641  53.2165 191.5639 0003112  41.0290 319.0935 15.08841248 32184,6917.877,95.437,541.894,537.589,0.0
